{
  "type": "FeatureCollection",
  "features": [
    {
      "type": "Feature",
      "properties": {
        "norad_id": 33822,
        "name": "COSMOS 2251 DEB",
        "group": "cosmos-2251-debris",
        "lat": 68.31363565518447,
        "lon": -28.239855124020522,
        "alt_km": 925.8182045910944,
        "timestamp": "2025-12-10T11:33:53.776727+00:00",
        "meta_object_name": "COSMOS 2251 DEB",
        "meta_object_id": "1993-036BP",
        "meta_epoch": "2025-12-10T01:36:13.316256",
        "meta_mean_motion": 14.13049024,
        "meta_eccentricity": 0.0153544,
        "meta_inclination": 74.0693,
        "meta_ra_of_asc_node": 198.4005,
        "meta_arg_of_pericenter": 245.3617,
        "meta_mean_anomaly": 270.1339,
        "meta_ephemeris_type": 0,
        "meta_classification_type": "U",
        "meta_norad_cat_id": 33822,
        "meta_element_set_no": 999,
        "meta_rev_at_epoch": 86016,
        "meta_bstar": 0.0016004,
        "meta_mean_motion_dot": 3.317e-05,
        "meta_mean_motion_ddot": 0,
        "tle_line1": "1 33822U 93036BP  25344.06682079  .00003317  00000+0  16004-2 0  9991",
        "tle_line2": "2 33822  74.0693 198.4005 0153544 245.3617 270.1339 14.13049024860160"
      },
      "geometry": {
        "type": "Point",
        "coordinates": [
          -28.239855124020522,
          68.31363565518447
        ]
      }
    },
    {
      "type": "Feature",
      "properties": {
        "norad_id": 33823,
        "name": "COSMOS 2251 DEB",
        "group": "cosmos-2251-debris",
        "lat": 42.36446528584842,
        "lon": 168.65259940940456,
        "alt_km": 980.6440054789964,
        "timestamp": "2025-12-10T11:33:53.776737+00:00",
        "meta_object_name": "COSMOS 2251 DEB",
        "meta_object_id": "1993-036BQ",
        "meta_epoch": "2025-12-09T22:22:20.562816",
        "meta_mean_motion": 13.9893902,
        "meta_eccentricity": 0.0209307,
        "meta_inclination": 73.8096,
        "meta_ra_of_asc_node": 154.2512,
        "meta_arg_of_pericenter": 279.8641,
        "meta_mean_anomaly": 235.5303,
        "meta_ephemeris_type": 0,
        "meta_classification_type": "U",
        "meta_norad_cat_id": 33823,
        "meta_element_set_no": 999,
        "meta_rev_at_epoch": 85570,
        "meta_bstar": 0.00098426,
        "meta_mean_motion_dot": 1.687e-05,
        "meta_mean_motion_ddot": 0,
        "tle_line1": "1 33823U 93036BQ  25343.93218244  .00001687  00000+0  98426-3 0  9993",
        "tle_line2": "2 33823  73.8096 154.2512 0209307 279.8641 235.5303 13.98939020855702"
      },
      "geometry": {
        "type": "Point",
        "coordinates": [
          168.65259940940456,
          42.36446528584842
        ]
      }
    },
    {
      "type": "Feature",
      "properties": {
        "norad_id": 33825,
        "name": "COSMOS 2251 DEB",
        "group": "cosmos-2251-debris",
        "lat": -19.04721876824294,
        "lon": -142.12769435191976,
        "alt_km": 722.5074442230834,
        "timestamp": "2025-12-10T11:33:53.776747+00:00",
        "meta_object_name": "COSMOS 2251 DEB",
        "meta_object_id": "1993-036BS",
        "meta_epoch": "2025-12-10T04:23:49.805376",
        "meta_mean_motion": 14.69726502,
        "meta_eccentricity": 0.0084427,
        "meta_inclination": 73.9851,
        "meta_ra_of_asc_node": 32.7618,
        "meta_arg_of_pericenter": 0.4399,
        "meta_mean_anomaly": 60.0794,
        "meta_ephemeris_type": 0,
        "meta_classification_type": "U",
        "meta_norad_cat_id": 33825,
        "meta_element_set_no": 999,
        "meta_rev_at_epoch": 88842,
        "meta_bstar": 0.0010087,
        "meta_mean_motion_dot": 6.322e-05,
        "meta_mean_motion_ddot": 0,
        "tle_line1": "1 33825U 93036BS  25344.18321534  .00006322  00000+0  10087-2 0  9997",
        "tle_line2": "2 33825  73.9851  32.7618 0084427   0.4399  60.0794 14.69726502888421"
      },
      "geometry": {
        "type": "Point",
        "coordinates": [
          -142.12769435191976,
          -19.04721876824294
        ]
      }
    },
    {
      "type": "Feature",
      "properties": {
        "norad_id": 33826,
        "name": "COSMOS 2251 DEB",
        "group": "cosmos-2251-debris",
        "lat": -53.886972275121906,
        "lon": -102.82359421645444,
        "alt_km": 770.5153319262099,
        "timestamp": "2025-12-10T11:33:53.776758+00:00",
        "meta_object_name": "COSMOS 2251 DEB",
        "meta_object_id": "1993-036BT",
        "meta_epoch": "2025-12-10T03:59:19.947840",
        "meta_mean_motion": 14.51682212,
        "meta_eccentricity": 0.0083471,
        "meta_inclination": 74.0647,
        "meta_ra_of_asc_node": 54.7142,
        "meta_arg_of_pericenter": 99.9106,
        "meta_mean_anomaly": 287.5027,
        "meta_ephemeris_type": 0,
        "meta_classification_type": "U",
        "meta_norad_cat_id": 33826,
        "meta_element_set_no": 999,
        "meta_rev_at_epoch": 87732,
        "meta_bstar": 0.001526,
        "meta_mean_motion_dot": 6.385e-05,
        "meta_mean_motion_ddot": 0,
        "tle_line1": "1 33826U 93036BT  25344.16620310  .00006385  00000+0  15260-2 0  9997",
        "tle_line2": "2 33826  74.0647  54.7142 0083471  99.9106 287.5027 14.51682212877322"
      },
      "geometry": {
        "type": "Point",
        "coordinates": [
          -102.82359421645444,
          -53.886972275121906
        ]
      }
    },
    {
      "type": "Feature",
      "properties": {
        "norad_id": 33828,
        "name": "COSMOS 2251 DEB",
        "group": "cosmos-2251-debris",
        "lat": -12.262328253499778,
        "lon": 65.85332905177695,
        "alt_km": 759.6669264547936,
        "timestamp": "2025-12-10T11:33:53.776768+00:00",
        "meta_object_name": "COSMOS 2251 DEB",
        "meta_object_id": "1993-036BV",
        "meta_epoch": "2025-12-10T04:46:31.192896",
        "meta_mean_motion": 14.44319581,
        "meta_eccentricity": 0.0029439,
        "meta_inclination": 74.0468,
        "meta_ra_of_asc_node": 242.8147,
        "meta_arg_of_pericenter": 316.1118,
        "meta_mean_anomaly": 206.4605,
        "meta_ephemeris_type": 0,
        "meta_classification_type": "U",
        "meta_norad_cat_id": 33828,
        "meta_element_set_no": 999,
        "meta_rev_at_epoch": 88276,
        "meta_bstar": 0.00069098,
        "meta_mean_motion_dot": 2.364e-05,
        "meta_mean_motion_ddot": 0,
        "tle_line1": "1 33828U 93036BV  25344.19897214  .00002364  00000+0  69098-3 0  9993",
        "tle_line2": "2 33828  74.0468 242.8147 0029439 316.1118 206.4605 14.44319581882765"
      },
      "geometry": {
        "type": "Point",
        "coordinates": [
          65.85332905177695,
          -12.262328253499778
        ]
      }
    },
    {
      "type": "Feature",
      "properties": {
        "norad_id": 33830,
        "name": "COSMOS 2251 DEB",
        "group": "cosmos-2251-debris",
        "lat": 15.590188200503079,
        "lon": 50.21067512585991,
        "alt_km": 668.7846298492659,
        "timestamp": "2025-12-10T11:33:53.776778+00:00",
        "meta_object_name": "COSMOS 2251 DEB",
        "meta_object_id": "1993-036BX",
        "meta_epoch": "2025-12-10T03:13:46.174944",
        "meta_mean_motion": 14.76844121,
        "meta_eccentricity": 0.0042306,
        "meta_inclination": 74.0322,
        "meta_ra_of_asc_node": 235.4736,
        "meta_arg_of_pericenter": 356.0494,
        "meta_mean_anomaly": 121.7534,
        "meta_ephemeris_type": 0,
        "meta_classification_type": "U",
        "meta_norad_cat_id": 33830,
        "meta_element_set_no": 999,
        "meta_rev_at_epoch": 89433,
        "meta_bstar": 0.0012964,
        "meta_mean_motion_dot": 9.218e-05,
        "meta_mean_motion_ddot": 0,
        "tle_line1": "1 33830U 93036BX  25344.13456221  .00009218  00000+0  12964-2 0  9993",
        "tle_line2": "2 33830  74.0322 235.4736 0042306 356.0494 121.7534 14.76844121894331"
      },
      "geometry": {
        "type": "Point",
        "coordinates": [
          50.21067512585991,
          15.590188200503079
        ]
      }
    },
    {
      "type": "Feature",
      "properties": {
        "norad_id": 33832,
        "name": "COSMOS 2251 DEB",
        "group": "cosmos-2251-debris",
        "lat": -13.53875146375112,
        "lon": -149.66517950235564,
        "alt_km": 698.5756061704633,
        "timestamp": "2025-12-10T11:33:53.776788+00:00",
        "meta_object_name": "COSMOS 2251 DEB",
        "meta_object_id": "1993-036BZ",
        "meta_epoch": "2025-12-10T02:30:09.067104",
        "meta_mean_motion": 14.60591167,
        "meta_eccentricity": 0.0025063,
        "meta_inclination": 74.0536,
        "meta_ra_of_asc_node": 215.0028,
        "meta_arg_of_pericenter": 246.5967,
        "meta_mean_anomaly": 274.4841,
        "meta_ephemeris_type": 0,
        "meta_classification_type": "U",
        "meta_norad_cat_id": 33832,
        "meta_element_set_no": 999,
        "meta_rev_at_epoch": 88386,
        "meta_bstar": 0.0017925,
        "meta_mean_motion_dot": 8.734e-05,
        "meta_mean_motion_ddot": 0,
        "tle_line1": "1 33832U 93036BZ  25344.10427161  .00008734  00000+0  17925-2 0  9997",
        "tle_line2": "2 33832  74.0536 215.0028 0025063 246.5967 274.4841 14.60591167883862"
      },
      "geometry": {
        "type": "Point",
        "coordinates": [
          -149.66517950235564,
          -13.53875146375112
        ]
      }
    }
  ]
}